STARLINK-31228          
1 58842U 24017S   25165.30323781 -.00001098  00000+0 -24963-4 0  9994
2 58842  53.1613  11.0519 0001317  75.4415 284.6731 15.30186532 78980
STARLINK-31280          
1 58843U 24017T   25165.30957368 -.00002046  00000+0 -56993-4 0  9991
2 58843  53.1610  11.0926 0001279  82.7484 277.3663 15.30180369 78967
STARLINK-31269          
1 58844U 24017U   25165.09544785  .00278296  00000+0  16395-1 0  9992
2 58844  53.1610 101.5075 0004870 260.7675  99.2766 15.09791901 77654
STARLINK-31264          
1 58845U 24017V   25165.31813052  .00271418  00000+0  14422-1 0  9992
2 58845  53.1652 100.0608 0003222  66.6396 293.4936 15.13555545 77698
STARLINK-31273          
1 58846U 24017W   25165.76993634 -.00000618  00000+0 -87344-5 0  9998
2 58846  53.1616   8.9901 0001338 126.7757 233.3367 15.30188835 79041
STARLINK-31262          
1 58847U 24017X   25165.86944759  .00337826  00000+0  13458-1 0  9997
2 58847  53.1602  97.8088 0002158 118.8370 241.2845 15.23243867 77781
STARLINK-31238          
1 58853U 24019A   25165.48159707 -.00001682  00000+0 -54509-4 0  9990
2 58853  42.9965 321.8674 0000546 265.8454  94.2335 15.25895717 78085
STARLINK-31158          
1 58854U 24019B   25165.50697561 -.00002556  00000+0 -87914-4 0  9996
2 58854  42.9962 322.9408 0001528 254.1788 105.8895 15.25905908 78075
STARLINK-31237          
1 58855U 24019C   25165.50245137 -.00001058  00000+0 -30621-4 0  9994
2 58855  42.9982 322.9320 0000423 245.2113 114.8694 15.25904763 78072
STARLINK-31244          
1 58856U 24019D   25165.52280101 -.00003982  00000+0 -14247-3 0  9990
2 58856  43.0045 323.0577 0000591 251.7000 108.3787 15.25908218 78074
STARLINK-31216          
1 58857U 24019E   25165.38915970 -.00000879  00000+0 -22427-4 0  9996
2 58857  42.9996 302.1894 0000927 278.5770  81.4977 15.27573860 78280
STARLINK-31226          
1 58858U 24019F   25165.44830181 -.00000876  00000+0 -23642-4 0  9991
2 58858  43.0043 323.3685 0001322 257.3985 102.6719 15.25899891 78061
STARLINK-31197          
1 58859U 24019G   25165.72822688 -.00002976  00000+0 -10401-3 0  9997
2 58859  43.0035 322.0128 0001126 267.8612  92.2110 15.25899111 78105
STARLINK-31213          
1 58860U 24019H   25165.74017781  .00106011  00000+0  38775-2 0  9997
2 58860  43.0037 322.0924 0002047 308.9868  51.0801 15.26975043 78106
