[
  {
    "OBJECT_NAME": "STARLINK-31228",
    "OBJECT_ID": "2024-017S",
    "EPOCH": "2025-06-14T07:16:39.746784",
    "MEAN_MOTION": 15.30186532,
    "ECCENTRICITY": 0.0001317,
    "INCLINATION": 53.1613,
    "RA_OF_ASC_NODE": 11.0519,
    "ARG_OF_PERICENTER": 75.4415,
    "MEAN_ANOMALY": 284.6731,
    "EPHEMERIS_TYPE": 0,
    "CLASSIFICATION_TYPE": "U",
    "NORAD_CAT_ID": 58842,
    "ELEMENT_SET_NO": 999,
    "REV_AT_EPOCH": 7898,
    "BSTAR": -2.4963e-05,
    "MEAN_MOTION_DOT": -1.098e-05,
    "MEAN_MOTION_DDOT": 0
  },
  {
    "OBJECT_NAME": "STARLINK-31280",
    "OBJECT_ID": "2024-017T",
    "EPOCH": "2025-06-14T07:25:47.165952",
    "MEAN_MOTION": 15.30180369,
    "ECCENTRICITY": 0.0001279,
    "INCLINATION": 53.161,
    "RA_OF_ASC_NODE": 11.0926,
    "ARG_OF_PERICENTER": 82.7484,
    "MEAN_ANOMALY": 277.3663,
    "EPHEMERIS_TYPE": 0,
    "CLASSIFICATION_TYPE": "U",
    "NORAD_CAT_ID": 58843,
    "ELEMENT_SET_NO": 999,
    "REV_AT_EPOCH": 7896,
    "BSTAR": -5.6993e-05,
    "MEAN_MOTION_DOT": -2.046e-05,
    "MEAN_MOTION_DDOT": 0
  },
  {
    "OBJECT_NAME": "STARLINK-31269",
    "OBJECT_ID": "2024-017U",
    "EPOCH": "2025-06-14T02:17:26.694240",
    "MEAN_MOTION": 15.09791901,
    "ECCENTRICITY": 0.000487,
    "INCLINATION": 53.161,
    "RA_OF_ASC_NODE": 101.5075,
    "ARG_OF_PERICENTER": 260.7675,
    "MEAN_ANOMALY": 99.2766,
    "EPHEMERIS_TYPE": 0,
    "CLASSIFICATION_TYPE": "U",
    "NORAD_CAT_ID": 58844,
    "ELEMENT_SET_NO": 999,
    "REV_AT_EPOCH": 7765,
    "BSTAR": 0.016395,
    "MEAN_MOTION_DOT": 0.00278296,
    "MEAN_MOTION_DDOT": 0
  },
  {
    "OBJECT_NAME": "STARLINK-31264",
    "OBJECT_ID": "2024-017V",
    "EPOCH": "2025-06-14T07:38:06.476928",
    "MEAN_MOTION": 15.13555545,
    "ECCENTRICITY": 0.0003222,
    "INCLINATION": 53.1652,
    "RA_OF_ASC_NODE": 100.0608,
    "ARG_OF_PERICENTER": 66.6396,
    "MEAN_ANOMALY": 293.4936,
    "EPHEMERIS_TYPE": 0,
    "CLASSIFICATION_TYPE": "U",
    "NORAD_CAT_ID": 58845,
    "ELEMENT_SET_NO": 999,
    "REV_AT_EPOCH": 7769,
    "BSTAR": 0.014422,
    "MEAN_MOTION_DOT": 0.00271418,
    "MEAN_MOTION_DDOT": 0
  },
  {
    "OBJECT_NAME": "STARLINK-31273",
    "OBJECT_ID": "2024-017W",
    "EPOCH": "2025-06-14T18:28:42.499776",
    "MEAN_MOTION": 15.30188835,
    "ECCENTRICITY": 0.0001338,
    "INCLINATION": 53.1616,
    "RA_OF_ASC_NODE": 8.9901,
    "ARG_OF_PERICENTER": 126.7757,
    "MEAN_ANOMALY": 233.3367,
    "EPHEMERIS_TYPE": 0,
    "CLASSIFICATION_TYPE": "U",
    "NORAD_CAT_ID": 58846,
    "ELEMENT_SET_NO": 999,
    "REV_AT_EPOCH": 7904,
    "BSTAR": -8.7344e-06,
    "MEAN_MOTION_DOT": -6.18e-06,
    "MEAN_MOTION_DDOT": 0
  },
  {
    "OBJECT_NAME": "STARLINK-31262",
    "OBJECT_ID": "2024-017X",
    "EPOCH": "2025-06-14T20:52:00.271776",
    "MEAN_MOTION": 15.23243867,
    "ECCENTRICITY": 0.0002158,
    "INCLINATION": 53.1602,
    "RA_OF_ASC_NODE": 97.8088,
    "ARG_OF_PERICENTER": 118.837,
    "MEAN_ANOMALY": 241.2845,
    "EPHEMERIS_TYPE": 0,
    "CLASSIFICATION_TYPE": "U",
    "NORAD_CAT_ID": 58847,
    "ELEMENT_SET_NO": 999,
    "REV_AT_EPOCH": 7778,
    "BSTAR": 0.013458,
    "MEAN_MOTION_DOT": 0.00337826,
    "MEAN_MOTION_DDOT": 0
  },
  {
    "OBJECT_NAME": "STARLINK-31238",
    "OBJECT_ID": "2024-019A",
    "EPOCH": "2025-06-14T11:33:29.986848",
    "MEAN_MOTION": 15.25895717,
    "ECCENTRICITY": 5.46e-05,
    "INCLINATION": 42.9965,
    "RA_OF_ASC_NODE": 321.8674,
    "ARG_OF_PERICENTER": 265.8454,
    "MEAN_ANOMALY": 94.2335,
    "EPHEMERIS_TYPE": 0,
    "CLASSIFICATION_TYPE": "U",
    "NORAD_CAT_ID": 58853,
    "ELEMENT_SET_NO": 999,
    "REV_AT_EPOCH": 7808,
    "BSTAR": -5.4509e-05,
    "MEAN_MOTION_DOT": -1.682e-05,
    "MEAN_MOTION_DDOT": 0
  },
  {
    "OBJECT_NAME": "STARLINK-31158",
    "OBJECT_ID": "2024-019B",
    "EPOCH": "2025-06-14T12:10:02.692704",
    "MEAN_MOTION": 15.25905908,
    "ECCENTRICITY": 0.0001528,
    "INCLINATION": 42.9962,
    "RA_OF_ASC_NODE": 322.9408,
    "ARG_OF_PERICENTER": 254.1788,
    "MEAN_ANOMALY": 105.8895,
    "EPHEMERIS_TYPE": 0,
    "CLASSIFICATION_TYPE": "U",
    "NORAD_CAT_ID": 58854,
    "ELEMENT_SET_NO": 999,
    "REV_AT_EPOCH": 7807,
    "BSTAR": -8.7914e-05,
    "MEAN_MOTION_DOT": -2.556e-05,
    "MEAN_MOTION_DDOT": 0
  },
  {
    "OBJECT_NAME": "STARLINK-31237",
    "OBJECT_ID": "2024-019C",
    "EPOCH": "2025-06-14T12:03:31.798368",
    "MEAN_MOTION": 15.25904763,
    "ECCENTRICITY": 4.23e-05,
    "INCLINATION": 42.9982,
    "RA_OF_ASC_NODE": 322.932,
    "ARG_OF_PERICENTER": 245.2113,
    "MEAN_ANOMALY": 114.8694,
    "EPHEMERIS_TYPE": 0,
    "CLASSIFICATION_TYPE": "U",
    "NORAD_CAT_ID": 58855,
    "ELEMENT_SET_NO": 999,
    "REV_AT_EPOCH": 7807,
    "BSTAR": -3.0621e-05,
    "MEAN_MOTION_DOT": -1.058e-05,
    "MEAN_MOTION_DDOT": 0
  },
  {
    "OBJECT_NAME": "STARLINK-31244",
    "OBJECT_ID": "2024-019D",
    "EPOCH": "2025-06-14T12:32:50.007264",
    "MEAN_MOTION": 15.25908218,
    "ECCENTRICITY": 5.91e-05,
    "INCLINATION": 43.0045,
    "RA_OF_ASC_NODE": 323.0577,
    "ARG_OF_PERICENTER": 251.7,
    "MEAN_ANOMALY": 108.3787,
    "EPHEMERIS_TYPE": 0,
    "CLASSIFICATION_TYPE": "U",
    "NORAD_CAT_ID": 58856,
    "ELEMENT_SET_NO": 999,
    "REV_AT_EPOCH": 7807,
    "BSTAR": -0.00014247,
    "MEAN_MOTION_DOT": -3.982e-05,
    "MEAN_MOTION_DDOT": 0
  },
  {
    "OBJECT_NAME": "STARLINK-31216",
    "OBJECT_ID": "2024-019E",
    "EPOCH": "2025-06-14T09:20:23.398080",
    "MEAN_MOTION": 15.2757386,
    "ECCENTRICITY": 9.27e-05,
    "INCLINATION": 42.9996,
    "RA_OF_ASC_NODE": 302.1894,
    "ARG_OF_PERICENTER": 278.577,
    "MEAN_ANOMALY": 81.4977,
    "EPHEMERIS_TYPE": 0,
    "CLASSIFICATION_TYPE": "U",
    "NORAD_CAT_ID": 58857,
    "ELEMENT_SET_NO": 999,
    "REV_AT_EPOCH": 7828,
    "BSTAR": -2.2427e-05,
    "MEAN_MOTION_DOT": -8.79e-06,
    "MEAN_MOTION_DDOT": 0
  },
  {
    "OBJECT_NAME": "STARLINK-31226",
    "OBJECT_ID": "2024-019F",
    "EPOCH": "2025-06-14T10:45:33.276384",
    "MEAN_MOTION": 15.25899891,
    "ECCENTRICITY": 0.0001322,
    "INCLINATION": 43.0043,
    "RA_OF_ASC_NODE": 323.3685,
    "ARG_OF_PERICENTER": 257.3985,
    "MEAN_ANOMALY": 102.6719,
    "EPHEMERIS_TYPE": 0,
    "CLASSIFICATION_TYPE": "U",
    "NORAD_CAT_ID": 58858,
    "ELEMENT_SET_NO": 999,
    "REV_AT_EPOCH": 7806,
    "BSTAR": -2.3642e-05,
    "MEAN_MOTION_DOT": -8.76e-06,
    "MEAN_MOTION_DDOT": 0
  },
  {
    "OBJECT_NAME": "STARLINK-31197",
    "OBJECT_ID": "2024-019G",
    "EPOCH": "2025-06-14T17:28:38.802432",
    "MEAN_MOTION": 15.25899111,
    "ECCENTRICITY": 0.0001126,
    "INCLINATION": 43.0035,
    "RA_OF_ASC_NODE": 322.0128,
    "ARG_OF_PERICENTER": 267.8612,
    "MEAN_ANOMALY": 92.211,
    "EPHEMERIS_TYPE": 0,
    "CLASSIFICATION_TYPE": "U",
    "NORAD_CAT_ID": 58859,
    "ELEMENT_SET_NO": 999,
    "REV_AT_EPOCH": 7810,
    "BSTAR": -0.00010401,
    "MEAN_MOTION_DOT": -2.976e-05,
    "MEAN_MOTION_DDOT": 0
  },
  {
    "OBJECT_NAME": "STARLINK-31213",
    "OBJECT_ID": "2024-019H",
    "EPOCH": "2025-06-14T17:45:51.362784",
    "MEAN_MOTION": 15.26975043,
    "ECCENTRICITY": 0.0002047,
    "INCLINATION": 43.0037,
    "RA_OF_ASC_NODE": 322.0924,
    "ARG_OF_PERICENTER": 308.9868,
    "MEAN_ANOMALY": 51.0801,
    "EPHEMERIS_TYPE": 0,
    "CLASSIFICATION_TYPE": "U",
    "NORAD_CAT_ID": 58860,
    "ELEMENT_SET_NO": 999,
    "REV_AT_EPOCH": 7810,
    "BSTAR": 0.0038775,
    "MEAN_MOTION_DOT": 0.00106011,
    "MEAN_MOTION_DDOT": 0
  }
]